COMMENT,ORIGINATOR,NORAD_CAT_ID,OBJECT_NAME,OBJECT_TYPE,CLASSIFICATION_TYPE,INTLDES,EPOCH,EPOCH_MICROSECONDS,MEAN_MOTION,ECCENTRICITY,INCLINATION,RA_OF_ASC_NODE,ARG_OF_PERICENTER,MEAN_ANOMALY,EPHEMERIS_TYPE,ELEMENT_SET_NO,REV_AT_EPOCH,BSTAR,MEAN_MOTION_DOT,MEAN_MOTION_DDOT,FILE,TLE_LINE0,TLE_LINE1,TLE_LINE2,OBJECT_ID,OBJECT_NUMBER,SEMIMAJOR_AXIS,PERIOD,APOGEE,PERIGEE
"GENERATED VIA SPACETRACK.ORG API","JSPOC","11698","COSMOS 1163","PAYLOAD","U","80012H","2016-01-10 05:42:33","797088","12.39902576","0.0045484","74.0233","312.4927","358.6465","153.9794","0","999","62528","-2.8886e-05","-1.9e-07","0","1978431","0 COSMOS 1163","1 11698U 80012H   16010.23789117 -.00000019  00000-0 -28886-4 0  9990","2 11698  74.0233 312.4927 0045484 358.6465 153.9794 12.39902576625281","1980-012H","11698","7885.153","116.138","1542.882","1471.153"
"GENERATED VIA SPACETRACK.ORG API","JSPOC","13353","COSMOS 1386","PAYLOAD","U","82069A","2016-01-10 05:42:42","147648","13.76333024","0.0037451","82.9618","47.4665","288.5781","140.2216","0","999","68298","4.5378e-05","5.9e-07","0","1978378","0 COSMOS 1386","1 13353U 82069A   16010.23798782  .00000059  00000-0  45378-4 0  9999","2 13353  82.9618  47.4665 0037451 288.5781 140.2216 13.76333024682983","1982-069A","13353","7355.058","104.625","1004.469","949.378"
"GENERATED VIA SPACETRACK.ORG API","JSPOC","22231","NAVSTAR 28 (USA 85)","PAYLOAD","U","92079A","2016-01-10 05:42:51","977376","2.00565882","0.0083607","55.4571","247.7561","291.8158","210.231","0","999","16948","0","6.1e-07","0","1978499","0 NAVSTAR 28 (USA 85)","1 22231U 92079A   16010.23810159  .00000061  00000-0  00000+0 0  9990","2 22231  55.4571 247.7561 0083607 291.8158 210.2310  2.00565882169482","1992-079A","22231","26560.146","717.968","20404.073","19959.950"
"GENERATED VIA SPACETRACK.ORG API","JSPOC","22231","NAVSTAR 28 (USA 85)","PAYLOAD","U","92079A","2016-01-10 05:42:51","977376","2.00565882","0.0083607","55.4571","247.7561","291.8158","210.231","0","999","16948","0","6.1e-07","0","1978615","0 NAVSTAR 28 (USA 85)","1 22231U 92079A   16010.23810159  .00000061  00000-0  00000+0 0  9990","2 22231  55.4571 247.7561 0083607 291.8158 210.2310  2.00565882169482","1992-079A","22231","26560.146","717.968","20404.073","19959.950"
"GENERATED VIA SPACETRACK.ORG API","JSPOC","9044","SL-8 R/B","ROCKET BODY","U","76070B","2016-01-10 05:42:55","398816","13.76195892","0.0013143","82.9885","299.9466","316.6919","151.4135","0","999","98184","1.7709e-05","3.2e-07","0","1978390","0 SL-8 R/B","1 09044U 76070B   16010.23814119  .00000032  00000-0  17709-4 0  9997","2 09044  82.9885 299.9466 0013143 316.6919 151.4135 13.76195892981842","1976-070B","9044","7355.547","104.636","987.079","967.745"
"GENERATED VIA SPACETRACK.ORG API","JSPOC","7281","COSMOS 650","PAYLOAD","U","74028A","2016-01-10 05:43:07","978656","12.69521068","0.0022059","74.0423","39.1752","252.1884","176.6106","0","999","93271","7.5266e-05","-2e-08","0","1978414","0 COSMOS 650","1 07281U 74028A   16010.23828679 -.00000002  00000-0  75266-4 0  9995","2 07281  74.0423  39.1752 0022059 252.1884 176.6106 12.69521068932714","1974-028A","7281","7762.028","113.428","1401.015","1366.771"
"GENERATED VIA SPACETRACK.ORG API","JSPOC","10893","OPS 5112 (NAVSTAR 2)","PAYLOAD","U","78047A","2016-01-10 05:43:10","84224","2.01625794","0.043999","64.1075","34.2381","49.1509","359.8923","0","999","27689","0","-7e-08","0","1979034","0 OPS 5112 (NAVSTAR 2)","1 10893U 78047A   16010.23831116 -.00000007 +00000-0 +00000-0 0  9998","2 10893 064.1075 034.2381 0439990 049.1509 359.8923 02.01625794276896","1978-047A","10893","26466.983","714.194","21253.369","18924.327"
"GENERATED VIA SPACETRACK.ORG API","JSPOC","447","THOR ABLESTAR R/B","ROCKET BODY","U","62060B","2016-01-10 05:43:18","851232","13.39010941","0.0065893","50.1317","348.1086","302.5976","156.7246","0","999","60188","7.668e-06","-1.23e-06","0","1978442","0 THOR ABLESTAR R/B","1 00447U 62060B   16010.23841263 -.00000123  00000-0  76680-5 0  9995","2 00447  50.1317 348.1086 0065893 302.5976 156.7246 13.39010941601882","1962-060B","447","7491.102","107.542","1162.328","1063.606"
"GENERATED VIA SPACETRACK.ORG API","JSPOC","37739","GLOBALSTAR M083","PAYLOAD","U","11033A","2016-01-10 05:43:28","828704","12.62282377","4.2e-05","51.9867","98.3858","140.742","247.2721","0","999","21203","-5.158e-05","-1.13e-06","0","1978454","0 GLOBALSTAR M083","1 37739U 11033A   16010.23852811 -.00000113  00000-0 -51580-4 0  9995","2 37739  51.9867  98.3858 0000420 140.7420 247.2721 12.62282377212035","2011-033A","37739","7791.674","114.079","1413.867","1413.212"
"GENERATED VIA SPACETRACK.ORG API","JSPOC","13298","SL-6 R/B(2)","ROCKET BODY","U","82064D","2016-01-10 05:44:06","275328","2.03255061","0.5740654","68.2793","344.1401","90.5304","60.0918","0","999","17230","0","7.16e-06","0","1978491","0 SL-6 R/B(2)","1 13298U 82064D   16010.23896152  .00000716  00000-0  00000+0 0  9990","2 13298  68.2793 344.1401 5740654  90.5304  60.0918  2.03255061172300","1982-064D","13298","26325.356","708.469","35059.697","4834.745"
"GENERATED VIA SPACETRACK.ORG API","JSPOC","13770","COSMOS 1437","PAYLOAD","U","83003A","2016-01-10 05:44:12","596352","15.43867697","0.000675","81.1608","68.576","300.8505","59.2074","0","999","80546","0.00017192","7.834e-05","0","1978586","0 COSMOS 1437","1 13770U 83003A   16010.23903468  .00007834  00000-0  17192-3 0  9990","2 13770  81.1608  68.5760 0006750 300.8505  59.2074 15.43867697805461","1983-003A","13770","6812.844","93.272","439.307","430.110"
"GENERATED VIA SPACETRACK.ORG API","JSPOC","7213","MIRANDA (X-4)","PAYLOAD","U","74013A","2016-01-10 05:44:19","779648","14.42625066","0.0119362","97.9085","106.4326","142.7378","218.2171","0","999","19030","6.7835e-05","2.04e-06","0","1978427","0 MIRANDA (X-4)","1 07213U 74013A   16010.23911782  .00000204  00000-0  67835-4 0  9998","2 07213  97.9085 106.4326 0119362 142.7378 218.2171 14.42625066190300","1974-013A","7213","7127.975","99.818","834.921","664.759"
"GENERATED VIA SPACETRACK.ORG API","JSPOC","6264","COSMOS 529","PAYLOAD","U","72087B","2016-01-10 05:44:31","492896","12.57156541","0.0042142","74.0355","88.221","186.2221","237.1121","0","999","98228","0.00012584","5e-08","0","1978416","0 COSMOS 529","1 06264U 72087B   16010.23925339  .00000005  00000-0  12584-3 0  9994","2 06264  74.0355  88.2210 0042142 186.2221 237.1121 12.57156541982283","1972-087B","6264","7812.840","114.544","1467.629","1401.780"
"GENERATED VIA SPACETRACK.ORG API","JSPOC","28414","SJ-6B","PAYLOAD","U","04035B","2016-01-10 05:44:41","819424","14.93733388","0.0005196","97.8239","19.4303","320.0352","40.0485","0","999","61701","7.4768e-05","7.34e-06","0","1978384","0 SJ-6B","1 28414U 04035B   16010.23937291  .00000734  00000-0  74768-4 0  9995","2 28414  97.8239  19.4303 0005196 320.0352  40.0485 14.93733388617010","2004-035B","28414","6964.443","96.402","589.927","582.690"
"GENERATED VIA SPACETRACK.ORG API","JSPOC","19038","COSMOS 1937","PAYLOAD","U","88029A","2016-01-10 05:44:43","341792","14.3512322","0.0024678","74.0455","249.5768","196.0803","302.9561","0","999","45323","2.9366e-05","5.8e-07","0","1978517","0 COSMOS 1937","1 19038U 88029A   16010.23939053  .00000058  00000-0  29366-4 0  9993","2 19038  74.0455 249.5768 0024678 196.0803 302.9561 14.35123220453239","1988-029A","19038","7152.793","100.339","792.310","757.007"
"GENERATED VIA SPACETRACK.ORG API","JSPOC","22061","SL-12 R/B(2)","ROCKET BODY","U","92047F","2016-01-10 05:44:49","936704","2.13331664","0.0003195","64.2826","74.2877","302.6534","63.0063","0","999","18260","0","2e-08","0","1979034","0 SL-12 R/B(2)","1 22061U 92047F   16010.23946686 +.00000002 +00000-0 +00000-0 0  9997","2 22061 064.2826 074.2877 0003195 302.6534 063.0063 02.13331664182601","1992-047F","22061","25489.713","675.005","19119.722","19103.434"
"GENERATED VIA SPACETRACK.ORG API","JSPOC","8026","METEOR 2-1","PAYLOAD","U","75064A","2016-01-10 05:45:16","853760","14.10213336","0.002152","81.2802","120.1316","220.3886","139.5689","0","999","8241","1.5805e-05","4.1e-07","0","1978444","0 METEOR 2-1","1 08026U 75064A   16010.23977840  .00000041  00000-0  15805-4 0  9994","2 08026  81.2802 120.1316 0021520 220.3886 139.5689 14.10213336 82412","1975-064A","8026","7236.778","102.112","874.217","843.070"
"GENERATED VIA SPACETRACK.ORG API","JSPOC","12111","COSMOS 1232","PAYLOAD","U","80102E","2016-01-10 05:45:42","531840","12.56273542","0.0032171","73.9945","118.6112","114.6016","268.1919","0","999","60739","-4.5121e-06","-1.7e-07","0","1978413","0 COSMOS 1232","1 12111U 80102E   16010.24007560 -.00000017  00000-0 -45121-5 0  9997","2 12111  73.9945 118.6112 0032171 114.6016 268.1919 12.56273542607396","1980-102E","12111","7816.500","114.624","1463.512","1413.219"
"GENERATED VIA SPACETRACK.ORG API","JSPOC","37742","GLOBALSTAR M085","PAYLOAD","U","11033D","2016-01-10 05:46:01","360992","12.62268106","6.5e-05","51.987","278.2316","49.0638","120.0457","0","999","20900","0.00015149","-7.7e-07","0","1978454","0 GLOBALSTAR M085","1 37742U 11033D   16010.24029353 -.00000077  00000-0  15149-3 0  9995","2 37742  51.9870 278.2316 0000650  49.0638 120.0457 12.62268106209009","2011-033D","37742","7791.733","114.080","1414.105","1413.092"
"GENERATED VIA SPACETRACK.ORG API","JSPOC","40535","DELTA 4 R/B","ROCKET BODY","U","15013B","2016-01-10 05:46:01","675488","1.92974989","0.0028849","54.7241","1.5641","342.443","17.4695","0","999","561","0","-5.3e-07","0","1979034","0 DELTA 4 R/B","1 40535U 15013B   16010.24029717 -.00000053 +00000-0 +00000-0 0  9996","2 40535 054.7241 001.5641 0028849 342.4430 017.4695 01.92974989005612","2015-013B","40535","27252.174","746.210","20952.659","20795.419"
